CCSDS_OMM_VERS = 2.0
CREATION_DATE  = 
ORIGINATOR     = 

OBJECT_NAME    = SL-14 R/B
OBJECT_ID      = 1991-042B
CENTER_NAME    = EARTH
REF_FRAME      = TEME
TIME_SYSTEM    = UTC
MEAN_ELEMENT_THEORY = SGP/SGP4

EPOCH          = 2026-03-02T22:30:10.180512
MEAN_MOTION    = 14.81821081
ECCENTRICITY   = .00155972
INCLINATION    = 82.4910
RA_OF_ASC_NODE = 226.5143
ARG_OF_PERICENTER = 262.7811
MEAN_ANOMALY   = 97.1630

EPHEMERIS_TYPE = 0
CLASSIFICATION_TYPE = U
NORAD_CAT_ID   = 21423
ELEMENT_SET_NO = 999
REV_AT_EPOCH   = 85207
BSTAR          = .7111413E-4
MEAN_MOTION_DOT = .586E-5
MEAN_MOTION_DDOT = 0

CCSDS_OMM_VERS = 2.0
CREATION_DATE  = 
ORIGINATOR     = 

OBJECT_NAME    = ERS-1
OBJECT_ID      = 1991-050A
CENTER_NAME    = EARTH
REF_FRAME      = TEME
TIME_SYSTEM    = UTC
MEAN_ELEMENT_THEORY = SGP/SGP4

EPOCH          = 2026-03-02T22:54:50.360256
MEAN_MOTION    = 14.39443021
ECCENTRICITY   = .00312692
INCLINATION    = 98.7885
RA_OF_ASC_NODE = 80.0200
ARG_OF_PERICENTER = 220.7291
MEAN_ANOMALY   = 139.1558

EPHEMERIS_TYPE = 0
CLASSIFICATION_TYPE = U
NORAD_CAT_ID   = 21574
ELEMENT_SET_NO = 999
REV_AT_EPOCH   = 81476
BSTAR          = .13442284E-3
MEAN_MOTION_DOT = .374E-5
MEAN_MOTION_DDOT = 0

CCSDS_OMM_VERS = 2.0
CREATION_DATE  = 
ORIGINATOR     = 

OBJECT_NAME    = ARIANE 40 R/B
OBJECT_ID      = 1991-050F
CENTER_NAME    = EARTH
REF_FRAME      = TEME
TIME_SYSTEM    = UTC
MEAN_ELEMENT_THEORY = SGP/SGP4

EPOCH          = 2026-03-02T17:51:50.927616
MEAN_MOTION    = 14.42887563
ECCENTRICITY   = .00043739
INCLINATION    = 98.2027
RA_OF_ASC_NODE = 114.2410
ARG_OF_PERICENTER = 96.3153
MEAN_ANOMALY   = 263.8536

EPHEMERIS_TYPE = 0
CLASSIFICATION_TYPE = U
NORAD_CAT_ID   = 21610
ELEMENT_SET_NO = 999
REV_AT_EPOCH   = 81799
BSTAR          = .12044108E-3
MEAN_MOTION_DOT = .361E-5
MEAN_MOTION_DDOT = 0

CCSDS_OMM_VERS = 2.0
CREATION_DATE  = 
ORIGINATOR     = 

OBJECT_NAME    = INTERCOSMOS 25
OBJECT_ID      = 1991-086A
CENTER_NAME    = EARTH
REF_FRAME      = TEME
TIME_SYSTEM    = UTC
MEAN_ELEMENT_THEORY = SGP/SGP4

EPOCH          = 2026-03-02T19:20:02.929344
MEAN_MOTION    = 12.11977255
ECCENTRICITY   = .14870689
INCLINATION    = 82.6065
RA_OF_ASC_NODE = 314.1685
ARG_OF_PERICENTER = 131.7631
MEAN_ANOMALY   = 242.0557

EPHEMERIS_TYPE = 0
CLASSIFICATION_TYPE = U
NORAD_CAT_ID   = 21819
ELEMENT_SET_NO = 999
REV_AT_EPOCH   = 49585
BSTAR          = .30564121E-3
MEAN_MOTION_DOT = .1593E-4
MEAN_MOTION_DDOT = 0

CCSDS_OMM_VERS = 2.0
CREATION_DATE  = 
ORIGINATOR     = 

OBJECT_NAME    = SL-8 R/B
OBJECT_ID      = 1992-008B
CENTER_NAME    = EARTH
REF_FRAME      = TEME
TIME_SYSTEM    = UTC
MEAN_ELEMENT_THEORY = SGP/SGP4

EPOCH          = 2026-03-02T23:15:33.607008
MEAN_MOTION    = 13.75969828
ECCENTRICITY   = .00352098
INCLINATION    = 82.9228
RA_OF_ASC_NODE = 272.7789
ARG_OF_PERICENTER = 151.6564
MEAN_ANOMALY   = 319.0460

EPHEMERIS_TYPE = 0
CLASSIFICATION_TYPE = U
NORAD_CAT_ID   = 21876
ELEMENT_SET_NO = 999
REV_AT_EPOCH   = 70849
BSTAR          = -.8554912E-5
MEAN_MOTION_DOT = .7E-7
MEAN_MOTION_DDOT = 0

CCSDS_OMM_VERS = 2.0
CREATION_DATE  = 
ORIGINATOR     = 

OBJECT_NAME    = SL-8 R/B
OBJECT_ID      = 1992-020B
CENTER_NAME    = EARTH
REF_FRAME      = TEME
TIME_SYSTEM    = UTC
MEAN_ELEMENT_THEORY = SGP/SGP4

EPOCH          = 2026-03-02T19:03:31.656960
MEAN_MOTION    = 13.75548515
ECCENTRICITY   = .0027928
INCLINATION    = 82.9340
RA_OF_ASC_NODE = 158.8798
ARG_OF_PERICENTER = 318.8708
MEAN_ANOMALY   = 162.2505

EPHEMERIS_TYPE = 0
CLASSIFICATION_TYPE = U
NORAD_CAT_ID   = 21938
ELEMENT_SET_NO = 999
REV_AT_EPOCH   = 70018
BSTAR          = .69022326E-4
MEAN_MOTION_DOT = .82E-6
MEAN_MOTION_DDOT = 0

CCSDS_OMM_VERS = 2.0
CREATION_DATE  = 
ORIGINATOR     = 

OBJECT_NAME    = USA 81
OBJECT_ID      = 1992-023A
CENTER_NAME    = EARTH
REF_FRAME      = TEME
TIME_SYSTEM    = UTC
MEAN_ELEMENT_THEORY = SGP/SGP4

EPOCH          = 2026-03-02T17:49:45.273504
MEAN_MOTION    = 14.32365171
ECCENTRICITY   = .00026366
INCLINATION    = 85.0098
RA_OF_ASC_NODE = 135.4483
ARG_OF_PERICENTER = 83.1586
MEAN_ANOMALY   = 276.9907

EPHEMERIS_TYPE = 0
CLASSIFICATION_TYPE = U
NORAD_CAT_ID   = 21949
ELEMENT_SET_NO = 999
REV_AT_EPOCH   = 9379
BSTAR          = .70113425E-4
MEAN_MOTION_DOT = .209E-5
MEAN_MOTION_DDOT = 0

CCSDS_OMM_VERS = 2.0
CREATION_DATE  = 
ORIGINATOR     = 

OBJECT_NAME    = COSMOS 2219
OBJECT_ID      = 1992-076A
CENTER_NAME    = EARTH
REF_FRAME      = TEME
TIME_SYSTEM    = UTC
MEAN_ELEMENT_THEORY = SGP/SGP4

EPOCH          = 2026-03-02T22:36:59.695776
MEAN_MOTION    = 14.14088695
ECCENTRICITY   = .00193522
INCLINATION    = 71.0617
RA_OF_ASC_NODE = 32.1718
ARG_OF_PERICENTER = 216.0527
MEAN_ANOMALY   = 143.9292

EPHEMERIS_TYPE = 0
CLASSIFICATION_TYPE = U
NORAD_CAT_ID   = 22219
ELEMENT_SET_NO = 999
REV_AT_EPOCH   = 71742
BSTAR          = .18527099E-3
MEAN_MOTION_DOT = .306E-5
MEAN_MOTION_DDOT = 0

CCSDS_OMM_VERS = 2.0
CREATION_DATE  = 
ORIGINATOR     = 

OBJECT_NAME    = SL-16 R/B
OBJECT_ID      = 1992-076B
CENTER_NAME    = EARTH
REF_FRAME      = TEME
TIME_SYSTEM    = UTC
MEAN_ELEMENT_THEORY = SGP/SGP4

EPOCH          = 2026-03-02T20:36:02.771424
MEAN_MOTION    = 14.16859712
ECCENTRICITY   = .00106473
INCLINATION    = 70.9997
RA_OF_ASC_NODE = 202.7622
ARG_OF_PERICENTER = 108.9627
MEAN_ANOMALY   = 2.9705

EPHEMERIS_TYPE = 0
CLASSIFICATION_TYPE = U
NORAD_CAT_ID   = 22220
ELEMENT_SET_NO = 999
REV_AT_EPOCH   = 72086
BSTAR          = .71181614E-4
MEAN_MOTION_DOT = .95E-6
MEAN_MOTION_DDOT = 0

CCSDS_OMM_VERS = 2.0
CREATION_DATE  = 
ORIGINATOR     = 

OBJECT_NAME    = COSMOS 2221
OBJECT_ID      = 1992-080A
CENTER_NAME    = EARTH
REF_FRAME      = TEME
TIME_SYSTEM    = UTC
MEAN_ELEMENT_THEORY = SGP/SGP4

EPOCH          = 2026-03-02T16:22:04.840608
MEAN_MOTION    = 14.96169084
ECCENTRICITY   = .00134244
INCLINATION    = 82.5020
RA_OF_ASC_NODE = 285.7945
ARG_OF_PERICENTER = 211.7493
MEAN_ANOMALY   = 148.2921

EPHEMERIS_TYPE = 0
CLASSIFICATION_TYPE = U
NORAD_CAT_ID   = 22236
ELEMENT_SET_NO = 999
REV_AT_EPOCH   = 77974
BSTAR          = .18070501E-3
MEAN_MOTION_DOT = .2064E-4
MEAN_MOTION_DDOT = 0

CCSDS_OMM_VERS = 2.0
CREATION_DATE  = 
ORIGINATOR     = 

OBJECT_NAME    = SL-16 R/B
OBJECT_ID      = 1992-093B
CENTER_NAME    = EARTH
REF_FRAME      = TEME
TIME_SYSTEM    = UTC
MEAN_ELEMENT_THEORY = SGP/SGP4

EPOCH          = 2026-03-02T22:55:26.605920
MEAN_MOTION    = 14.15449606
ECCENTRICITY   = .00062669
INCLINATION    = 71.0238
RA_OF_ASC_NODE = 18.4021
ARG_OF_PERICENTER = 300.9286
MEAN_ANOMALY   = 59.1220

EPHEMERIS_TYPE = 0
CLASSIFICATION_TYPE = U
NORAD_CAT_ID   = 22285
ELEMENT_SET_NO = 999
REV_AT_EPOCH   = 71220
BSTAR          = -.41978689E-4
MEAN_MOTION_DOT = -.13E-5
MEAN_MOTION_DDOT = 0

CCSDS_OMM_VERS = 2.0
CREATION_DATE  = 
ORIGINATOR     = 

OBJECT_NAME    = COSMOS 2228
OBJECT_ID      = 1992-094A
CENTER_NAME    = EARTH
REF_FRAME      = TEME
TIME_SYSTEM    = UTC
MEAN_ELEMENT_THEORY = SGP/SGP4

EPOCH          = 2026-03-02T23:17:16.639008
MEAN_MOTION    = 14.97148819
ECCENTRICITY   = .00172269
INCLINATION    = 82.5145
RA_OF_ASC_NODE = 243.7453
ARG_OF_PERICENTER = 328.6480
MEAN_ANOMALY   = 31.3714

EPHEMERIS_TYPE = 0
CLASSIFICATION_TYPE = U
NORAD_CAT_ID   = 22286
ELEMENT_SET_NO = 999
REV_AT_EPOCH   = 77505
BSTAR          = .2396374E-3
MEAN_MOTION_DOT = .28E-4
MEAN_MOTION_DDOT = 0

