SL-14 R/B               
1 21423U 91042B   26061.93761783  .00000586  00000+0  71114-4 0  9993
2 21423  82.4910 226.5143 0015597 262.7811  97.1630 14.81821081852077
ERS-1                   
1 21574U 91050A   26061.95474954  .00000374  00000+0  13442-3 0  9996
2 21574  98.7885  80.0200 0031269 220.7291 139.1558 14.39443021814769
ARIANE 40 R/B           
1 21610U 91050F   26061.74433944  .00000361  00000+0  12044-3 0  9991
2 21610  98.2027 114.2410 0004373  96.3153 263.8536 14.42887563817992
INTERCOSMOS 25          
1 21819U 91086A   26061.80558946  .00001593  00000+0  30564-3 0  9993
2 21819  82.6065 314.1685 1487068 131.7631 242.0557 12.11977255495850
SL-8 R/B                
1 21876U 92008B   26061.96913897  .00000007  00000+0 -85549-5 0  9993
2 21876  82.9228 272.7789 0035209 151.6564 319.0460 13.75969828708495
SL-8 R/B                
1 21938U 92020B   26061.79411640  .00000082  00000+0  69022-4 0  9995
2 21938  82.9340 158.8798 0027928 318.8708 162.2505 13.75548515700181
USA 81                  
1 21949U 92023A   26061.74288511  .00000209  00000+0  70113-4 0  9998
2 21949  85.0098 135.4483 0002636  83.1586 276.9907 14.32365171 93794
COSMOS 2219             
1 22219U 92076A   26061.94235759  .00000306  00000+0  18527-3 0  9993
2 22219  71.0617  32.1718 0019352 216.0527 143.9292 14.14088695717422
SL-16 R/B               
1 22220U 92076B   26061.85836541  .00000095  00000+0  71182-4 0  9993
2 22220  70.9997 202.7622 0010647 108.9627   2.9705 14.16859712720863
COSMOS 2221             
1 22236U 92080A   26061.68200047  .00002064  00000+0  18071-3 0  9997
2 22236  82.5020 285.7945 0013424 211.7493 148.2921 14.96169084779744
SL-16 R/B               
1 22285U 92093B   26061.95516905 -.00000130  00000+0 -41979-4 0  9996
2 22285  71.0238  18.4021 0006266 300.9286  59.1220 14.15449606712207
COSMOS 2228             
1 22286U 92094A   26061.97033147  .00002800  00000+0  23964-3 0  9999
2 22286  82.5145 243.7453 0017226 328.6480  31.3714 14.97148819775059
